{
  "type": "FeatureCollection",
  "features": [
    {
      "type": "Feature",
      "properties": {
        "norad_id": 66466,
        "name": "STARLINK-35388",
        "group": "last-30-days",
        "lat": -42.7116888546165,
        "lon": 39.12345625936271,
        "alt_km": 399.18414511566334,
        "timestamp": "2025-12-04T03:47:53.335635+00:00",
        "meta_object_name": "STARLINK-35388",
        "meta_object_id": "2025-262L",
        "meta_epoch": "2025-12-03T12:00:02.998944",
        "meta_mean_motion": 15.59712558,
        "meta_eccentricity": 0.0001193,
        "meta_inclination": 42.9997,
        "meta_ra_of_asc_node": 125.1903,
        "meta_arg_of_pericenter": 267.3661,
        "meta_mean_anomaly": 271.6348,
        "meta_ephemeris_type": 0,
        "meta_classification_type": "U",
        "meta_norad_cat_id": 66466,
        "meta_element_set_no": 999,
        "meta_rev_at_epoch": 415,
        "meta_bstar": -0.029188,
        "meta_mean_motion_dot": -0.02132364,
        "meta_mean_motion_ddot": 0,
        "tle_line1": "1 66466U 25262L   25337.50003471 -.02132364  00000+0 -29188-1 0  9996",
        "tle_line2": "2 66466  42.9997 125.1903 0001193 267.3661 271.6348 15.59712558  4155"
      },
      "geometry": {
        "type": "Point",
        "coordinates": [
          39.12345625936271,
          -42.7116888546165
        ]
      }
    },
    {
      "type": "Feature",
      "properties": {
        "norad_id": 66467,
        "name": "STARLINK-35682",
        "group": "last-30-days",
        "lat": -42.94963662904829,
        "lon": 33.909600849254176,
        "alt_km": 399.1228234263799,
        "timestamp": "2025-12-04T03:47:53.335648+00:00",
        "meta_object_name": "STARLINK-35682",
        "meta_object_id": "2025-262M",
        "meta_epoch": "2025-12-03T12:00:02.998944",
        "meta_mean_motion": 15.59720349,
        "meta_eccentricity": 0.0001346,
        "meta_inclination": 42.9997,
        "meta_ra_of_asc_node": 125.201,
        "meta_arg_of_pericenter": 265.3139,
        "meta_mean_anomaly": 269.8539,
        "meta_ephemeris_type": 0,
        "meta_classification_type": "U",
        "meta_norad_cat_id": 66467,
        "meta_element_set_no": 999,
        "meta_rev_at_epoch": 415,
        "meta_bstar": -0.029427,
        "meta_mean_motion_dot": -0.0214855,
        "meta_mean_motion_ddot": 0,
        "tle_line1": "1 66467U 25262M   25337.50003471 -.02148550  00000+0 -29427-1 0  9997",
        "tle_line2": "2 66467  42.9997 125.2010 0001346 265.3139 269.8539 15.59720349  4152"
      },
      "geometry": {
        "type": "Point",
        "coordinates": [
          33.909600849254176,
          -42.94963662904829
        ]
      }
    },
    {
      "type": "Feature",
      "properties": {
        "norad_id": 66468,
        "name": "STARLINK-35331",
        "group": "last-30-days",
        "lat": -42.505913288998606,
        "lon": 41.68982817541793,
        "alt_km": 399.28722326701336,
        "timestamp": "2025-12-04T03:47:53.335659+00:00",
        "meta_object_name": "STARLINK-35331",
        "meta_object_id": "2025-262N",
        "meta_epoch": "2025-12-03T12:00:02.998944",
        "meta_mean_motion": 15.59722142,
        "meta_eccentricity": 0.0001079,
        "meta_inclination": 42.9994,
        "meta_ra_of_asc_node": 125.1863,
        "meta_arg_of_pericenter": 273.1467,
        "meta_mean_anomaly": 267.7704,
        "meta_ephemeris_type": 0,
        "meta_classification_type": "U",
        "meta_norad_cat_id": 66468,
        "meta_element_set_no": 999,
        "meta_rev_at_epoch": 415,
        "meta_bstar": -0.02944,
        "meta_mean_motion_dot": -0.02149353,
        "meta_mean_motion_ddot": 0,
        "tle_line1": "1 66468U 25262N   25337.50003471 -.02149353  00000+0 -29440-1 0  9995",
        "tle_line2": "2 66468  42.9994 125.1863 0001079 273.1467 267.7704 15.59722142  4153"
      },
      "geometry": {
        "type": "Point",
        "coordinates": [
          41.68982817541793,
          -42.505913288998606
        ]
      }
    },
    {
      "type": "Feature",
      "properties": {
        "norad_id": 66469,
        "name": "STARLINK-35451",
        "group": "last-30-days",
        "lat": -41.54312313314075,
        "lon": 49.307290083419275,
        "alt_km": 399.2943565159285,
        "timestamp": "2025-12-04T03:47:53.335669+00:00",
        "meta_object_name": "STARLINK-35451",
        "meta_object_id": "2025-262P",
        "meta_epoch": "2025-12-03T12:00:02.998944",
        "meta_mean_motion": 15.59718652,
        "meta_eccentricity": 0.0001053,
        "meta_inclination": 42.9996,
        "meta_ra_of_asc_node": 125.1711,
        "meta_arg_of_pericenter": 268.0861,
        "meta_mean_anomaly": 278.5842,
        "meta_ephemeris_type": 0,
        "meta_classification_type": "U",
        "meta_norad_cat_id": 66469,
        "meta_element_set_no": 999,
        "meta_rev_at_epoch": 415,
        "meta_bstar": -0.029365,
        "meta_mean_motion_dot": -0.02144166,
        "meta_mean_motion_ddot": 0,
        "tle_line1": "1 66469U 25262P   25337.50003471 -.02144166  00000+0 -29365-1 0  9999",
        "tle_line2": "2 66469  42.9996 125.1711 0001053 268.0861 278.5842 15.59718652  4155"
      },
      "geometry": {
        "type": "Point",
        "coordinates": [
          49.307290083419275,
          -41.54312313314075
        ]
      }
    },
    {
      "type": "Feature",
      "properties": {
        "norad_id": 66470,
        "name": "STARLINK-35655",
        "group": "last-30-days",
        "lat": -42.24568295536379,
        "lon": 44.220042013027616,
        "alt_km": 399.48320741163116,
        "timestamp": "2025-12-04T03:47:53.335679+00:00",
        "meta_object_name": "STARLINK-35655",
        "meta_object_id": "2025-262Q",
        "meta_epoch": "2025-12-03T20:00:01.999008",
        "meta_mean_motion": 15.58160792,
        "meta_eccentricity": 0.0001368,
        "meta_inclination": 42.9996,
        "meta_ra_of_asc_node": 123.2089,
        "meta_arg_of_pericenter": 274.4435,
        "meta_mean_anomaly": 341.3032,
        "meta_ephemeris_type": 0,
        "meta_classification_type": "U",
        "meta_norad_cat_id": 66470,
        "meta_element_set_no": 999,
        "meta_rev_at_epoch": 420,
        "meta_bstar": -0.030415,
        "meta_mean_motion_dot": -0.02097996,
        "meta_mean_motion_ddot": 0,
        "tle_line1": "1 66470U 25262Q   25337.83335647 -.02097996  00000+0 -30415-1 0  9996",
        "tle_line2": "2 66470  42.9996 123.2089 0001368 274.4435 341.3032 15.58160792  4202"
      },
      "geometry": {
        "type": "Point",
        "coordinates": [
          44.220042013027616,
          -42.24568295536379
        ]
      }
    },
    {
      "type": "Feature",
      "properties": {
        "norad_id": 66471,
        "name": "STARLINK-35569",
        "group": "last-30-days",
        "lat": -41.920062634457594,
        "lon": 46.79494553023158,
        "alt_km": 399.2326716425032,
        "timestamp": "2025-12-04T03:47:53.335689+00:00",
        "meta_object_name": "STARLINK-35569",
        "meta_object_id": "2025-262R",
        "meta_epoch": "2025-12-03T12:00:02.998944",
        "meta_mean_motion": 15.59717313,
        "meta_eccentricity": 0.0001125,
        "meta_inclination": 42.9996,
        "meta_ra_of_asc_node": 125.176,
        "meta_arg_of_pericenter": 271.2014,
        "meta_mean_anomaly": 273.5531,
        "meta_ephemeris_type": 0,
        "meta_classification_type": "U",
        "meta_norad_cat_id": 66471,
        "meta_element_set_no": 999,
        "meta_rev_at_epoch": 415,
        "meta_bstar": -0.02935,
        "meta_mean_motion_dot": -0.02143149,
        "meta_mean_motion_ddot": 0,
        "tle_line1": "1 66471U 25262R   25337.50003471 -.02143149  00000+0 -29350-1 0  9996",
        "tle_line2": "2 66471  42.9996 125.1760 0001125 271.2014 273.5531 15.59717313  4151"
      },
      "geometry": {
        "type": "Point",
        "coordinates": [
          46.79494553023158,
          -41.920062634457594
        ]
      }
    },
    {
      "type": "Feature",
      "properties": {
        "norad_id": 66472,
        "name": "STARLINK-35567",
        "group": "last-30-days",
        "lat": -41.11952263847851,
        "lon": 51.74973545001392,
        "alt_km": 399.4197270837176,
        "timestamp": "2025-12-04T03:47:53.335699+00:00",
        "meta_object_name": "STARLINK-35567",
        "meta_object_id": "2025-262S",
        "meta_epoch": "2025-12-03T20:00:01.999008",
        "meta_mean_motion": 15.58167132,
        "meta_eccentricity": 0.0001407,
        "meta_inclination": 42.9996,
        "meta_ra_of_asc_node": 123.1939,
        "meta_arg_of_pericenter": 275.7701,
        "meta_mean_anomaly": 345.7254,
        "meta_ephemeris_type": 0,
        "meta_classification_type": "U",
        "meta_norad_cat_id": 66472,
        "meta_element_set_no": 999,
        "meta_rev_at_epoch": 420,
        "meta_bstar": -0.030569,
        "meta_mean_motion_dot": -0.02107901,
        "meta_mean_motion_ddot": 0,
        "tle_line1": "1 66472U 25262S   25337.83335647 -.02107901  00000+0 -30569-1 0  9996",
        "tle_line2": "2 66472  42.9996 123.1939 0001407 275.7701 345.7254 15.58167132  4200"
      },
      "geometry": {
        "type": "Point",
        "coordinates": [
          51.74973545001392,
          -41.11952263847851
        ]
      }
    }
  ]
}